*******************************************************************************
Ephemeris / WWW_USER Mon Mar 24 08:14:14 2025 Pasadena, USA      / Horizons    
*******************************************************************************
Target body name: (2018 VN1)                      {source: JPL#9}
Center body name: Earth (399)                     {source: DE441}
Center-site name: Mauna Kea
*******************************************************************************
Start time      : A.D. 2018-Nov-30 03:51:00.0000 UT      
Stop  time      : A.D. 2018-Nov-30 16:29:00.0000 UT      
Step-size       : 1 minutes
*******************************************************************************
Target pole/equ : undefined
Target radii    : undefined                                                    
Center geodetic : 204.5278, 19.8260847, 4.21024   {E-lon(deg),Lat(deg),Alt(km)}
Center cylindric: 204.5278, 6006.35451, 2151.0229 {E-lon(deg),Dxy(km),Dz(km)}
Center pole/equ : ITRF93                          {East-longitude positive}
Center radii    : 6378.137, 6378.137, 6356.752 km {Equator_a, b, pole_c}       
Target primary  : Sun
Vis. interferer : MOON (R_eq= 1737.400) km        {source: DE441}
Rel. light bend : Sun                             {source: DE441}
Rel. lght bnd GM: 1.3271E+11 km^3/s^2                                          
Small-body perts: Yes                             {source: SB441-N16}
Atmos refraction: NO (AIRLESS)
RA format       : HMS
Time format     : CAL 
Calendar mode   : Mixed Julian/Gregorian
RTS-only print  : NO       
EOP file        : eop.250321.p250617                                           
EOP coverage    : DATA-BASED 1962-JAN-20 TO 2025-MAR-21. PREDICTS-> 2025-JUN-16
Units conversion: 1 au= 149597870.700 km, c= 299792.458 km/s, 1 day= 86400.0 s 
Table cut-offs 1: Elevation (-90.0deg=NO ),Airmass (>38.000=NO), Daylight (YES)
Table cut-offs 2: Solar elongation (  0.0,180.0=NO ),Local Hour Angle( 0.0=NO )
Table cut-offs 3: RA/DEC angular rate (     0.0=NO )                           
*******************************************************************************
Initial IAU76/J2000 heliocentric ecliptic osculating elements (au, days, deg.):
  EPOCH=  2458428.5 ! 2018-Nov-06.00 (TDB)         Residual RMS= .27219        
   EC= .3884608603153671   QR= 1.011903292497374   TP= 2458433.1511739166      
   OM= 228.4137592171332   W=  180.2469578564258   IN= 3.355185598403424       
  Equivalent ICRF heliocentric cartesian coordinates (au, au/d):
   X= 7.364971791856070E-01  Y= 6.361813492829538E-01  Z= 2.815132693616627E-01
  VX=-1.417073247356795E-02 VY= 1.354428742085641E-02 VZ= 4.590405825264917E-03
Asteroid physical parameters (km, seconds, rotational period in hours):        
   GM= n.a.                RAD= n.a.               ROTPER= n.a.                
   H= 26.2                 G= .150                 B-V= n.a.                   
                           ALBEDO= n.a.            STYP= n.a.                  
*******************************************************************************
 Date__(UT)__HR:MN     R.A._________(ICRF)_________DEC
******************************************************
$$SOE
 2018-Nov-30 14:06  m  07 45 32.140461 +02 40 41.18798
 2018-Nov-30 14:07  m  07 45 32.173561 +02 40 40.51072
 2018-Nov-30 14:08  m  07 45 32.206679 +02 40 39.83342
 2018-Nov-30 14:09  m  07 45 32.239816 +02 40 39.15608
 2018-Nov-30 14:10  m  07 45 32.272971 +02 40 38.47869
 2018-Nov-30 14:11  m  07 45 32.306147 +02 40 37.80127
 2018-Nov-30 14:12  m  07 45 32.339343 +02 40 37.12380
 2018-Nov-30 14:13  m  07 45 32.372559 +02 40 36.44629
 2018-Nov-30 14:14  m  07 45 32.405798 +02 40 35.76873
 2018-Nov-30 14:15  m  07 45 32.439059 +02 40 35.09114
 2018-Nov-30 14:16  m  07 45 32.472342 +02 40 34.41350
 2018-Nov-30 14:17  m  07 45 32.505649 +02 40 33.73583
 2018-Nov-30 14:18  m  07 45 32.538980 +02 40 33.05811
 2018-Nov-30 14:19  m  07 45 32.572336 +02 40 32.38035
 2018-Nov-30 14:20  m  07 45 32.605717 +02 40 31.70255
 2018-Nov-30 14:21  m  07 45 32.639124 +02 40 31.02471
 2018-Nov-30 14:22  m  07 45 32.672557 +02 40 30.34682
 2018-Nov-30 14:23  m  07 45 32.706017 +02 40 29.66890
 2018-Nov-30 14:24  m  07 45 32.739505 +02 40 28.99094
 2018-Nov-30 14:25  m  07 45 32.773022 +02 40 28.31293
 2018-Nov-30 14:26  m  07 45 32.806567 +02 40 27.63489
 2018-Nov-30 14:27  m  07 45 32.840142 +02 40 26.95681
 2018-Nov-30 14:28  m  07 45 32.873746 +02 40 26.27868
 2018-Nov-30 14:29  m  07 45 32.907382 +02 40 25.60052
 2018-Nov-30 14:30  m  07 45 32.941049 +02 40 24.92231
 2018-Nov-30 14:31  m  07 45 32.974747 +02 40 24.24407
 2018-Nov-30 14:32  m  07 45 33.008478 +02 40 23.56579
 2018-Nov-30 14:33  m  07 45 33.042243 +02 40 22.88747
 2018-Nov-30 14:34  m  07 45 33.076041 +02 40 22.20911
 2018-Nov-30 14:35  m  07 45 33.109873 +02 40 21.53071
 2018-Nov-30 14:36  m  07 45 33.143740 +02 40 20.85227
 2018-Nov-30 14:37  m  07 45 33.177642 +02 40 20.17379
 2018-Nov-30 14:38  m  07 45 33.211581 +02 40 19.49528
 2018-Nov-30 14:39  m  07 45 33.245556 +02 40 18.81672
 2018-Nov-30 14:40  m  07 45 33.279568 +02 40 18.13813
 2018-Nov-30 14:41  m  07 45 33.313619 +02 40 17.45950
 2018-Nov-30 14:42  m  07 45 33.347707 +02 40 16.78084
 2018-Nov-30 14:43  m  07 45 33.381835 +02 40 16.10213
 2018-Nov-30 14:44  m  07 45 33.416002 +02 40 15.42339
 2018-Nov-30 14:45  m  07 45 33.450210 +02 40 14.74461
 2018-Nov-30 14:46  m  07 45 33.484458 +02 40 14.06579
 2018-Nov-30 14:47  m  07 45 33.518747 +02 40 13.38694
 2018-Nov-30 14:48  m  07 45 33.553079 +02 40 12.70805
 2018-Nov-30 14:49  m  07 45 33.587453 +02 40 12.02912
 2018-Nov-30 14:50  m  07 45 33.621870 +02 40 11.35016
 2018-Nov-30 14:51  m  07 45 33.656331 +02 40 10.67116
 2018-Nov-30 14:52  m  07 45 33.690836 +02 40 09.99212
 2018-Nov-30 14:53  m  07 45 33.725386 +02 40 09.31305
 2018-Nov-30 14:54  m  07 45 33.759981 +02 40 08.63395
 2018-Nov-30 14:55  m  07 45 33.794622 +02 40 07.95480
 2018-Nov-30 14:56  m  07 45 33.829310 +02 40 07.27563
 2018-Nov-30 14:57  m  07 45 33.864045 +02 40 06.59641
 2018-Nov-30 14:58  m  07 45 33.898828 +02 40 05.91716
 2018-Nov-30 14:59  m  07 45 33.933658 +02 40 05.23788
 2018-Nov-30 15:00  m  07 45 33.968538 +02 40 04.55857
 2018-Nov-30 15:01  m  07 45 34.003468 +02 40 03.87921
 2018-Nov-30 15:02  m  07 45 34.038447 +02 40 03.19983
 2018-Nov-30 15:03  m  07 45 34.073477 +02 40 02.52041
 2018-Nov-30 15:04  m  07 45 34.108558 +02 40 01.84096
 2018-Nov-30 15:05  m  07 45 34.143690 +02 40 01.16147
 2018-Nov-30 15:06  m  07 45 34.178875 +02 40 00.48195
 2018-Nov-30 15:07  m  07 45 34.214113 +02 39 59.80240
 2018-Nov-30 15:08  m  07 45 34.249404 +02 39 59.12281
 2018-Nov-30 15:09  m  07 45 34.284749 +02 39 58.44320
 2018-Nov-30 15:10  m  07 45 34.320149 +02 39 57.76354
 2018-Nov-30 15:11  m  07 45 34.355604 +02 39 57.08386
 2018-Nov-30 15:12  m  07 45 34.391114 +02 39 56.40415
 2018-Nov-30 15:13  m  07 45 34.426680 +02 39 55.72440
 2018-Nov-30 15:14  m  07 45 34.462304 +02 39 55.04462
 2018-Nov-30 15:15  m  07 45 34.497984 +02 39 54.36481
 2018-Nov-30 15:16  m  07 45 34.533723 +02 39 53.68497
 2018-Nov-30 15:17  m  07 45 34.569520 +02 39 53.00510
 2018-Nov-30 15:18  m  07 45 34.605375 +02 39 52.32520
 2018-Nov-30 15:19  m  07 45 34.641291 +02 39 51.64527
 2018-Nov-30 15:20  m  07 45 34.677266 +02 39 50.96530
 2018-Nov-30 15:21  m  07 45 34.713302 +02 39 50.28531
 2018-Nov-30 15:22  m  07 45 34.749399 +02 39 49.60529
 2018-Nov-30 15:23 Am  07 45 34.785558 +02 39 48.92523
 2018-Nov-30 15:24 Am  07 45 34.821779 +02 39 48.24515
 2018-Nov-30 15:25 Am  07 45 34.858063 +02 39 47.56504
 2018-Nov-30 15:26 Am  07 45 34.894410 +02 39 46.88490
 2018-Nov-30 15:27 Am  07 45 34.930821 +02 39 46.20473
 2018-Nov-30 15:28 Am  07 45 34.967296 +02 39 45.52454
 2018-Nov-30 15:29 Am  07 45 35.003836 +02 39 44.84431
 2018-Nov-30 15:30 Am  07 45 35.040442 +02 39 44.16406
 2018-Nov-30 15:31 Am  07 45 35.077114 +02 39 43.48378
 2018-Nov-30 15:32 Am  07 45 35.113852 +02 39 42.80347
 2018-Nov-30 15:33 Am  07 45 35.150657 +02 39 42.12314
 2018-Nov-30 15:34 Am  07 45 35.187530 +02 39 41.44278
 2018-Nov-30 15:35 Am  07 45 35.224471 +02 39 40.76239
 2018-Nov-30 15:36 Am  07 45 35.261481 +02 39 40.08198
 2018-Nov-30 15:37 Am  07 45 35.298560 +02 39 39.40153
 2018-Nov-30 15:38 Am  07 45 35.335708 +02 39 38.72107
 2018-Nov-30 15:39 Am  07 45 35.372927 +02 39 38.04058
 2018-Nov-30 15:40 Am  07 45 35.410216 +02 39 37.36006
 2018-Nov-30 15:41 Am  07 45 35.447577 +02 39 36.67952
 2018-Nov-30 15:42 Am  07 45 35.485009 +02 39 35.99895
 2018-Nov-30 15:43 Am  07 45 35.522514 +02 39 35.31836
 2018-Nov-30 15:44 Am  07 45 35.560091 +02 39 34.63774
 2018-Nov-30 15:45 Am  07 45 35.597742 +02 39 33.95710
 2018-Nov-30 15:46 Am  07 45 35.635467 +02 39 33.27644
 2018-Nov-30 15:47 Am  07 45 35.673266 +02 39 32.59575
 2018-Nov-30 15:48 Am  07 45 35.711139 +02 39 31.91504
 2018-Nov-30 15:49 Nm  07 45 35.749089 +02 39 31.23430
 2018-Nov-30 15:50 Nm  07 45 35.787113 +02 39 30.55355
 2018-Nov-30 15:51 Nm  07 45 35.825215 +02 39 29.87277
 2018-Nov-30 15:52 Nm  07 45 35.863393 +02 39 29.19197
 2018-Nov-30 15:53 Nm  07 45 35.901648 +02 39 28.51114
 2018-Nov-30 15:54 Nm  07 45 35.939982 +02 39 27.83030
 2018-Nov-30 15:55 Nm  07 45 35.978393 +02 39 27.14943
 2018-Nov-30 15:56 Nm  07 45 36.016884 +02 39 26.46855
 2018-Nov-30 15:57 Nm  07 45 36.055454 +02 39 25.78764
 2018-Nov-30 15:58 Nm  07 45 36.094103 +02 39 25.10671
 2018-Nov-30 15:59 Nm  07 45 36.132833 +02 39 24.42576
 2018-Nov-30 16:00 Nm  07 45 36.171644 +02 39 23.74480
 2018-Nov-30 16:01 Nm  07 45 36.210536 +02 39 23.06381
 2018-Nov-30 16:02 Nm  07 45 36.249510 +02 39 22.38280
 2018-Nov-30 16:03 Nm  07 45 36.288566 +02 39 21.70177
 2018-Nov-30 16:04 Nm  07 45 36.327705 +02 39 21.02073
 2018-Nov-30 16:05 Nm  07 45 36.366927 +02 39 20.33967
 2018-Nov-30 16:06 Nm  07 45 36.406233 +02 39 19.65858
 2018-Nov-30 16:07 Nm  07 45 36.445622 +02 39 18.97748
 2018-Nov-30 16:08 Nm  07 45 36.485097 +02 39 18.29637
